[{"OBJECT_NAME":"STARLINK-5147","OBJECT_ID":"2022-125X","EPOCH":"2026-03-09T17:15:08.735904","MEAN_MOTION":15.08860135,"ECCENTRICITY":0.00011902,"INCLINATION":53.2178,"RA_OF_ASC_NODE":214.2234,"ARG_OF_PERICENTER":82.7716,"MEAN_ANOMALY":277.3411,"EPHEMERIS_TYPE":0,"CLASSIFICATION_TYPE":"U","NORAD_CAT_ID":53985,"ELEMENT_SET_NO":999,"REV_AT_EPOCH":18946,"BSTAR":0.00018785314,"MEAN_MOTION_DOT":2.705e-5,"MEAN_MOTION_DDOT":0},{"OBJECT_NAME":"COSMOS 397 DEB","OBJECT_ID":"1971-015AG","EPOCH":"2026-03-09T22:22:53.777568","MEAN_MOTION":14.12365411,"ECCENTRICITY":0.0445918,"INCLINATION":65.7074,"RA_OF_ASC_NODE":278.293,"ARG_OF_PERICENTER":75.555,"MEAN_ANOMALY":289.457,"EPHEMERIS_TYPE":0,"CLASSIFICATION_TYPE":"U","NORAD_CAT_ID":5144,"ELEMENT_SET_NO":999,"REV_AT_EPOCH":68427,"BSTAR":0.0016503671,"MEAN_MOTION_DOT":7.82e-5,"MEAN_MOTION_DDOT":0}]
